ATLAS CENTAUR 2         
1 00694U 63047A   25342.69301530  .00004814  00000+0  58108-3 0  9993
2 00694  30.3565 344.0618 0549047 358.5204   1.3780 14.11725844118753
THOR AGENA D R/B        
1 00733U 64002A   25342.95444664  .00000352  00000+0  14281-3 0  9991
2 00733  99.1215 346.3684 0033193 161.1204 199.1218 14.33955799225296
SL-3 R/B                
1 00877U 64053B   25342.94515301  .00000581  00000+0  13740-3 0  9995
2 00877  65.0769 237.2561 0073554 321.6012  37.9865 14.61270328253532
SL-8 R/B                
1 02802U 67045B   25342.91716622  .00000608  00000+0  17569-3 0  9998
2 02802  74.0096 157.6006 0064491 187.8239 172.1920 14.45530457 75908
SL-8 R/B                
1 03230U 68040B   25342.84507653  .00006215  00000+0  46776-3 0  9996
2 03230  74.0301 139.2078 0025203 341.6325  18.3950 15.02482714 76363
OAO 2                   
1 03597U 68110A   25342.57944873  .00000639  00000+0  17755-3 0  9998
2 03597  34.9942  53.8842 0005580 192.8214 167.2336 14.47240713  5895
ISIS 1                  
1 03669U 69009A   25342.89980882  .00000296  00000+0  21597-3 0  9999
2 03669  88.4486 165.2165 1706843 272.4591  68.3037 11.30351809338270
SERT 2                  
1 04327U 70009A   25342.82929642  .00000074  00000+0  15808-3 0  9995
2 04327  99.2643 285.9481 0005501  43.2270  11.7453 13.58716885767550
SL-3 R/B                
1 05118U 71028B   25342.94160952  .00032470  00000+0  49415-3 0  9996
2 05118  81.2374 163.4911 0019368 254.1563 105.7552 15.54135829974547
ASTEX 1                 
1 05560U 71089A   25342.98007713  .00000889  00000+0  22653-3 0  9997
2 05560  92.7135 122.4026 0016847  37.7822 322.4563 14.50635068849157
SL-8 R/B                
1 05730U 71119B   25342.99386265  .00015345  00000+0  80092-3 0  9997
2 05730  73.8885 344.9727 0559762 329.9905  27.0214 14.35592268642466
OAO 3 (COPERNICUS)      
1 06153U 72065A   25342.72677312  .00000873  00000+0  18400-3 0  9999
2 06153  35.0053  95.5253 0006115 140.1239   7.3199 14.59901615832895
