CCSDS_OMM_VERS = 2.0
CREATION_DATE  = 
ORIGINATOR     = 

OBJECT_NAME    = ATLAS CENTAUR 2
OBJECT_ID      = 1963-047A
CENTER_NAME    = EARTH
REF_FRAME      = TEME
TIME_SYSTEM    = UTC
MEAN_ELEMENT_THEORY = SGP/SGP4

EPOCH          = 2025-12-08T16:37:56.521920
MEAN_MOTION    = 14.11725844
ECCENTRICITY   = .05490472
INCLINATION    = 30.3565
RA_OF_ASC_NODE = 344.0618
ARG_OF_PERICENTER = 358.5204
MEAN_ANOMALY   = 1.3780

EPHEMERIS_TYPE = 0
CLASSIFICATION_TYPE = U
NORAD_CAT_ID   = 694
ELEMENT_SET_NO = 999
REV_AT_EPOCH   = 11875
BSTAR          = .58107541E-3
MEAN_MOTION_DOT = .4814E-4
MEAN_MOTION_DDOT = 0

CCSDS_OMM_VERS = 2.0
CREATION_DATE  = 
ORIGINATOR     = 

OBJECT_NAME    = THOR AGENA D R/B
OBJECT_ID      = 1964-002A
CENTER_NAME    = EARTH
REF_FRAME      = TEME
TIME_SYSTEM    = UTC
MEAN_ELEMENT_THEORY = SGP/SGP4

EPOCH          = 2025-12-08T22:54:24.189696
MEAN_MOTION    = 14.33955799
ECCENTRICITY   = .00331931
INCLINATION    = 99.1215
RA_OF_ASC_NODE = 346.3684
ARG_OF_PERICENTER = 161.1204
MEAN_ANOMALY   = 199.1218

EPHEMERIS_TYPE = 0
CLASSIFICATION_TYPE = U
NORAD_CAT_ID   = 733
ELEMENT_SET_NO = 999
REV_AT_EPOCH   = 22529
BSTAR          = .14280709E-3
MEAN_MOTION_DOT = .352E-5
MEAN_MOTION_DDOT = 0

CCSDS_OMM_VERS = 2.0
CREATION_DATE  = 
ORIGINATOR     = 

OBJECT_NAME    = SL-3 R/B
OBJECT_ID      = 1964-053B
CENTER_NAME    = EARTH
REF_FRAME      = TEME
TIME_SYSTEM    = UTC
MEAN_ELEMENT_THEORY = SGP/SGP4

EPOCH          = 2025-12-08T22:41:01.220064
MEAN_MOTION    = 14.61270328
ECCENTRICITY   = .00735545
INCLINATION    = 65.0769
RA_OF_ASC_NODE = 237.2561
ARG_OF_PERICENTER = 321.6012
MEAN_ANOMALY   = 37.9865

EPHEMERIS_TYPE = 0
CLASSIFICATION_TYPE = U
NORAD_CAT_ID   = 877
ELEMENT_SET_NO = 999
REV_AT_EPOCH   = 25353
BSTAR          = .13740142E-3
MEAN_MOTION_DOT = .581E-5
MEAN_MOTION_DDOT = 0

CCSDS_OMM_VERS = 2.0
CREATION_DATE  = 
ORIGINATOR     = 

OBJECT_NAME    = SL-8 R/B
OBJECT_ID      = 1967-045B
CENTER_NAME    = EARTH
REF_FRAME      = TEME
TIME_SYSTEM    = UTC
MEAN_ELEMENT_THEORY = SGP/SGP4

EPOCH          = 2025-12-08T22:00:43.161408
MEAN_MOTION    = 14.45530457
ECCENTRICITY   = .0064491
INCLINATION    = 74.0096
RA_OF_ASC_NODE = 157.6006
ARG_OF_PERICENTER = 187.8239
MEAN_ANOMALY   = 172.1920

EPHEMERIS_TYPE = 0
CLASSIFICATION_TYPE = U
NORAD_CAT_ID   = 2802
ELEMENT_SET_NO = 999
REV_AT_EPOCH   = 7590
BSTAR          = .17568898E-3
MEAN_MOTION_DOT = .608E-5
MEAN_MOTION_DDOT = 0

CCSDS_OMM_VERS = 2.0
CREATION_DATE  = 
ORIGINATOR     = 

OBJECT_NAME    = SL-8 R/B
OBJECT_ID      = 1968-040B
CENTER_NAME    = EARTH
REF_FRAME      = TEME
TIME_SYSTEM    = UTC
MEAN_ELEMENT_THEORY = SGP/SGP4

EPOCH          = 2025-12-08T20:16:54.612192
MEAN_MOTION    = 15.02482714
ECCENTRICITY   = .0025203
INCLINATION    = 74.0301
RA_OF_ASC_NODE = 139.2078
ARG_OF_PERICENTER = 341.6325
MEAN_ANOMALY   = 18.3950

EPHEMERIS_TYPE = 0
CLASSIFICATION_TYPE = U
NORAD_CAT_ID   = 3230
ELEMENT_SET_NO = 999
REV_AT_EPOCH   = 7636
BSTAR          = .46776165E-3
MEAN_MOTION_DOT = .6215E-4
MEAN_MOTION_DDOT = 0

CCSDS_OMM_VERS = 2.0
CREATION_DATE  = 
ORIGINATOR     = 

OBJECT_NAME    = OAO 2
OBJECT_ID      = 1968-110A
CENTER_NAME    = EARTH
REF_FRAME      = TEME
TIME_SYSTEM    = UTC
MEAN_ELEMENT_THEORY = SGP/SGP4

EPOCH          = 2025-12-08T13:54:24.370272
MEAN_MOTION    = 14.47240713
ECCENTRICITY   = .000558
INCLINATION    = 34.9942
RA_OF_ASC_NODE = 53.8842
ARG_OF_PERICENTER = 192.8214
MEAN_ANOMALY   = 167.2336

EPHEMERIS_TYPE = 0
CLASSIFICATION_TYPE = U
NORAD_CAT_ID   = 3597
ELEMENT_SET_NO = 999
REV_AT_EPOCH   = 589
BSTAR          = .17755E-3
MEAN_MOTION_DOT = .639E-5
MEAN_MOTION_DDOT = 0

CCSDS_OMM_VERS = 2.0
CREATION_DATE  = 
ORIGINATOR     = 

OBJECT_NAME    = ISIS 1
OBJECT_ID      = 1969-009A
CENTER_NAME    = EARTH
REF_FRAME      = TEME
TIME_SYSTEM    = UTC
MEAN_ELEMENT_THEORY = SGP/SGP4

EPOCH          = 2025-12-08T21:35:43.482048
MEAN_MOTION    = 11.30351809
ECCENTRICITY   = .17068439
INCLINATION    = 88.4486
RA_OF_ASC_NODE = 165.2165
ARG_OF_PERICENTER = 272.4591
MEAN_ANOMALY   = 68.3037

EPHEMERIS_TYPE = 0
CLASSIFICATION_TYPE = U
NORAD_CAT_ID   = 3669
ELEMENT_SET_NO = 999
REV_AT_EPOCH   = 33827
BSTAR          = .2159698E-3
MEAN_MOTION_DOT = .296E-5
MEAN_MOTION_DDOT = 0

CCSDS_OMM_VERS = 2.0
CREATION_DATE  = 
ORIGINATOR     = 

OBJECT_NAME    = SERT 2
OBJECT_ID      = 1970-009A
CENTER_NAME    = EARTH
REF_FRAME      = TEME
TIME_SYSTEM    = UTC
MEAN_ELEMENT_THEORY = SGP/SGP4

EPOCH          = 2025-12-08T19:54:11.210688
MEAN_MOTION    = 13.58716885
ECCENTRICITY   = .00055017
INCLINATION    = 99.2643
RA_OF_ASC_NODE = 285.9481
ARG_OF_PERICENTER = 43.2270
MEAN_ANOMALY   = 11.7453

EPHEMERIS_TYPE = 0
CLASSIFICATION_TYPE = U
NORAD_CAT_ID   = 4327
ELEMENT_SET_NO = 999
REV_AT_EPOCH   = 76755
BSTAR          = .15807846E-3
MEAN_MOTION_DOT = .74E-6
MEAN_MOTION_DDOT = 0

CCSDS_OMM_VERS = 2.0
CREATION_DATE  = 
ORIGINATOR     = 

OBJECT_NAME    = SL-3 R/B
OBJECT_ID      = 1971-028B
CENTER_NAME    = EARTH
REF_FRAME      = TEME
TIME_SYSTEM    = UTC
MEAN_ELEMENT_THEORY = SGP/SGP4

EPOCH          = 2025-12-08T22:35:55.062528
MEAN_MOTION    = 15.54135829
ECCENTRICITY   = .00193687
INCLINATION    = 81.2374
RA_OF_ASC_NODE = 163.4911
ARG_OF_PERICENTER = 254.1563
MEAN_ANOMALY   = 105.7552

EPHEMERIS_TYPE = 0
CLASSIFICATION_TYPE = U
NORAD_CAT_ID   = 5118
ELEMENT_SET_NO = 999
REV_AT_EPOCH   = 97454
BSTAR          = .49414905E-3
MEAN_MOTION_DOT = .3247E-3
MEAN_MOTION_DDOT = 0

CCSDS_OMM_VERS = 2.0
CREATION_DATE  = 
ORIGINATOR     = 

OBJECT_NAME    = ASTEX 1
OBJECT_ID      = 1971-089A
CENTER_NAME    = EARTH
REF_FRAME      = TEME
TIME_SYSTEM    = UTC
MEAN_ELEMENT_THEORY = SGP/SGP4

EPOCH          = 2025-12-08T23:31:18.664032
MEAN_MOTION    = 14.50635068
ECCENTRICITY   = .0016847
INCLINATION    = 92.7135
RA_OF_ASC_NODE = 122.4026
ARG_OF_PERICENTER = 37.7822
MEAN_ANOMALY   = 322.4563

EPHEMERIS_TYPE = 0
CLASSIFICATION_TYPE = U
NORAD_CAT_ID   = 5560
ELEMENT_SET_NO = 999
REV_AT_EPOCH   = 84915
BSTAR          = .22653282E-3
MEAN_MOTION_DOT = .889E-5
MEAN_MOTION_DDOT = 0

CCSDS_OMM_VERS = 2.0
CREATION_DATE  = 
ORIGINATOR     = 

OBJECT_NAME    = SL-8 R/B
OBJECT_ID      = 1971-119B
CENTER_NAME    = EARTH
REF_FRAME      = TEME
TIME_SYSTEM    = UTC
MEAN_ELEMENT_THEORY = SGP/SGP4

EPOCH          = 2025-12-08T23:51:09.732960
MEAN_MOTION    = 14.35592268
ECCENTRICITY   = .05597622
INCLINATION    = 73.8885
RA_OF_ASC_NODE = 344.9727
ARG_OF_PERICENTER = 329.9905
MEAN_ANOMALY   = 27.0214

EPHEMERIS_TYPE = 0
CLASSIFICATION_TYPE = U
NORAD_CAT_ID   = 5730
ELEMENT_SET_NO = 999
REV_AT_EPOCH   = 64246
BSTAR          = .80091651E-3
MEAN_MOTION_DOT = .15345E-3
MEAN_MOTION_DDOT = 0

CCSDS_OMM_VERS = 2.0
CREATION_DATE  = 
ORIGINATOR     = 

OBJECT_NAME    = OAO 3 (COPERNICUS)
OBJECT_ID      = 1972-065A
CENTER_NAME    = EARTH
REF_FRAME      = TEME
TIME_SYSTEM    = UTC
MEAN_ELEMENT_THEORY = SGP/SGP4

EPOCH          = 2025-12-08T17:26:33.197568
MEAN_MOTION    = 14.59901615
ECCENTRICITY   = .00061154
INCLINATION    = 35.0053
RA_OF_ASC_NODE = 95.5253
ARG_OF_PERICENTER = 140.1239
MEAN_ANOMALY   = 7.3199

EPHEMERIS_TYPE = 0
CLASSIFICATION_TYPE = U
NORAD_CAT_ID   = 6153
ELEMENT_SET_NO = 999
REV_AT_EPOCH   = 83289
BSTAR          = .18400423E-3
MEAN_MOTION_DOT = .873E-5
MEAN_MOTION_DDOT = 0

